NORAD_CAT_ID,OBJECT_NAME,OBJECT_TYPE,EPOCH,MEAN_MOTION,ECCENTRICITY,INCLINATION,RA_OF_ASC_NODE,ARG_OF_PERICENTER,MEAN_ANOMALY,BSTAR,MEAN_MOTION_DOT,MEAN_MOTION_DDOT,TLE_LINE0,TLE_LINE1,TLE_LINE2,SEMIMAJOR_AXIS,PERIOD,APOGEE,PERIGEE,DECAYED
56789.0,STARLINK-6325,PAYLOAD,2024-07-14 19:51:55,14.98331128,0.0003021,70.0007,24.4837,269.9081,90.1732,3.529e-05,3.28e-06,0.0,0 STARLINK-6325,1 56789U 23078Y   24196.82773069  .00000328  00000-0  35290-4 0  9995,2 56789  70.0007  24.4837 0003021 269.9081  90.1732 14.98331128 63629,6950.189,96.107,574.154,569.955,0.0
56789.0,STARLINK-6325,PAYLOAD,2024-07-14 21:28:03,14.98331795,0.0003015,70.0008,24.3154,269.8993,90.1821,4.2044e-05,4.09e-06,0.0,0 STARLINK-6325,1 56789U 23078Y   24196.89448999  .00000409  00000-0  42044-4 0  9998,2 56789  70.0008  24.3154 0003015 269.8993  90.1821 14.98331795 64041,6950.187,96.107,574.148,569.957,0.0
56789.0,STARLINK-6325,PAYLOAD,2024-07-15 13:29:24,14.98328776,0.0002974,70.0009,22.6324,266.9261,93.1558,-2.185e-05,-3.54e-06,0.0,0 STARLINK-6325,1 56789U 23078Y   24197.56209317 -.00000354  00000-0 -21850-4 0  9995,2 56789  70.0009  22.6324 0002974 266.9261  93.1558 14.98328776 64147,6950.197,96.107,574.129,569.995,0.0
56789.0,STARLINK-6325,PAYLOAD,2024-07-15 21:30:05,14.98329903,0.0002942,70.0011,21.7904,270.4601,89.6221,-1.8012e-06,-1.14e-06,0.0,0 STARLINK-6325,1 56789U 23078Y   24197.89589225 -.00000114  00000-0 -18012-5 0  9991,2 56789  70.0011  21.7904 0002942 270.4601  89.6221 14.98329903 64192,6950.193,96.107,574.103,570.013,0.0
56789.0,STARLINK-6325,PAYLOAD,2024-07-15 23:06:13,14.9833087,0.0002945,70.0011,21.622,270.4852,89.597,8.4907e-06,8e-08,0.0,0 STARLINK-6325,1 56789U 23078Y   24197.96265132  .00000008  00000-0  84907-5 0  9993,2 56789  70.0011  21.6220 0002945 270.4852  89.5970 14.98330870 63793,6950.19,96.107,574.102,570.008,0.0
56789.0,STARLINK-6325,PAYLOAD,2024-07-16 13:31:25,14.98332423,0.0002932,70.0011,20.1069,270.2494,89.8329,1.6654e-05,1.06e-06,0.0,0 STARLINK-6325,1 56789U 23078Y   24198.56348947  .00000106  00000-0  16654-4 0  9998,2 56789  70.0011  20.1069 0002932 270.2494  89.8329 14.98332423 64297,6950.185,96.107,574.088,570.013,0.0
56789.0,STARLINK-6325,PAYLOAD,2024-07-16 21:32:05,14.98334934,0.0002958,70.0012,19.2653,270.3114,89.7706,1.9199e-05,1.36e-06,0.0,0 STARLINK-6325,1 56789U 23078Y   24198.89728712  .00000136  00000-0  19199-4 0  9996,2 56789  70.0012  19.2653 0002958 270.3114  89.7706 14.98334934 64347,6950.178,96.107,574.098,569.987,0.0
56789.0,STARLINK-6325,PAYLOAD,2024-07-17 11:57:18,14.9832408,0.0002753,70.0022,17.7495,273.2776,86.8068,-3.5554e-06,-1.35e-06,0.0,0 STARLINK-6325,1 56789U 23078Y   24199.49813480 -.00000135  00000-0 -35554-5 0  9995,2 56789  70.0022  17.7495 0002753 273.2776  86.8068 14.98324080 64029,6950.211,96.107,573.99,570.163,0.0
56789.0,STARLINK-6325,PAYLOAD,2024-07-17 13:33:27,14.98318646,0.0002953,70.0014,17.581,272.3938,87.6883,-5.28e-05,-7.23e-06,0.0,0 STARLINK-6325,1 56789U 23078Y   24199.56489933 -.00000723  00000-0 -52800-4 0  9990,2 56789  70.0014  17.5810 0002953 272.3938  87.6883 14.98318646 64442,6950.228,96.108,574.145,570.041,0.0
56789.0,STARLINK-6325,PAYLOAD,2024-07-17 21:34:07,14.98320271,0.0002637,70.0015,16.7396,264.3752,95.7107,-8.8805e-06,-1.99e-06,0.0,0 STARLINK-6325,1 56789U 23078Y   24199.89869901 -.00000199  00000-0 -88805-5 0  9995,2 56789  70.0015  16.7396 0002637 264.3752  95.7107 14.98320271 64498,6950.223,96.108,573.921,570.255,0.0
56789.0,STARLINK-6325,PAYLOAD,2024-07-18 11:59:19,14.98340187,0.0002773,70.0015,15.2247,274.6335,85.4507,-0.00014138,-1.78e-05,0.0,0 STARLINK-6325,1 56789U 23078Y   24200.49953147 -.00001780  00000-0 -14138-3 0  9993,2 56789  70.0015  15.2247 0002773 274.6335  85.4507 14.98340187 64172,6950.161,96.106,573.954,570.099,0.0
56789.0,STARLINK-6325,PAYLOAD,2024-07-18 13:35:27,14.98328979,0.0002968,70.0014,15.0566,272.5895,87.4924,2.1098e-05,1.59e-06,0.0,0 STARLINK-6325,1 56789U 23078Y   24200.56629358  .00000159  00000-0  21098-4 0  9996,2 56789  70.0014  15.0566 0002968 272.5895  87.4924 14.98328979 64593,6950.196,96.107,574.124,569.998,0.0
56789.0,STARLINK-6325,PAYLOAD,2024-07-18 20:00:00,14.98302352,0.0002688,70.0012,14.3825,269.4561,90.629,0.00054752,6.441e-05,0.0,0 STARLINK-6325,1 56789U 23078Y   24200.83333635  .00006441  00000-0  54752-3 0  9998,2 56789  70.0012  14.3825 0002688 269.4561  90.6290 14.98302352 64224,6950.278,96.109,574.012,570.275,0.0
56789.0,STARLINK-6325,PAYLOAD,2024-07-18 21:36:07,14.98332241,0.0002856,70.0012,14.2142,270.7827,89.3005,8.0568e-05,8.69e-06,0.0,0 STARLINK-6325,1 56789U 23078Y   24200.90008966  .00000869  00000-0  80568-4 0  9995,2 56789  70.0012  14.2142 0002856 270.7827  89.3005 14.98332241 64647,6950.186,96.107,574.036,570.066,0.0
56789.0,STARLINK-6325,PAYLOAD,2024-07-19 13:37:28,14.98325542,0.0002915,70.0008,12.5313,270.6014,89.4811,9.8809e-05,1.086e-05,0.0,0 STARLINK-6325,1 56789U 23078Y   24201.56769227  .00001086  00000-0  98809-4 0  9991,2 56789  70.0008  12.5313 0002915 270.6014  89.4811 14.98325542 64749,6950.207,96.107,574.098,570.046,0.0
56789.0,STARLINK-6325,PAYLOAD,2024-07-19 21:38:08,14.98330992,0.0003008,70.0008,11.6903,270.5528,89.5286,0.00011021,1.222e-05,0.0,0 STARLINK-6325,1 56789U 23078Y   24201.90148865  .00001222  00000-0  11021-3 0  9990,2 56789  70.0008  11.6903 0003008 270.5528  89.5286 14.98330992 64794,6950.19,96.107,574.145,569.964,0.0
56789.0,STARLINK-6325,PAYLOAD,2024-07-20 04:02:41,14.98328392,0.000289,70.0012,11.0171,273.2077,86.8751,1.3565e-05,6.9e-07,0.0,0 STARLINK-6325,1 56789U 23078Y   24202.16853321  .00000069  00000-0  13565-4 0  9993,2 56789  70.0012  11.0171 0002890 273.2077  86.8751 14.98328392 64425,6950.198,96.107,574.071,570.054,0.0
56789.0,STARLINK-6325,PAYLOAD,2024-07-20 13:39:29,14.98328333,0.0002904,70.0012,10.0075,269.5676,90.515,-8.0262e-05,-1.05e-05,0.0,0 STARLINK-6325,1 56789U 23078Y   24202.56909604 -.00001050  00000-0 -80262-4 0  9994,2 56789  70.0012  10.0075 0002904 269.5676  90.5150 14.98328333 64897,6950.198,96.107,574.081,570.045,0.0
56789.0,STARLINK-6325,PAYLOAD,2024-07-20 21:40:09,14.98331522,0.0002785,70.0015,9.167,266.2844,93.7997,-3.0933e-05,-4.62e-06,0.0,0 STARLINK-6325,1 56789U 23078Y   24202.90289241 -.00000462  00000-0 -30933-4 0  9996,2 56789  70.0015   9.1670 0002785 266.2844  93.7997 14.98331522 64942,6950.188,96.107,573.989,570.118,0.0
56789.0,STARLINK-6325,PAYLOAD,2024-07-21 04:04:42,14.98331021,0.0002783,70.0016,8.4936,266.6281,93.456,-4.2805e-05,-6.04e-06,0.0,0 STARLINK-6325,1 56789U 23078Y   24203.16993269 -.00000604  00000-0 -42805-4 0  9996,2 56789  70.0016   8.4936 0002783 266.6281  93.4560 14.98331021 64573,6950.19,96.107,573.989,570.12,0.0
56789.0,STARLINK-6325,PAYLOAD,2024-07-21 13:41:30,14.98332844,0.0002824,70.0015,7.4835,267.2944,92.7892,-5.6173e-06,-1.6e-06,0.0,0 STARLINK-6325,1 56789U 23078Y   24203.57048982 -.00000160  00000-0 -56173-5 0  9995,2 56789  70.0015   7.4835 0002824 267.2944  92.7892 14.98332844 65045,6950.184,96.107,574.012,570.086,0.0
56789.0,STARLINK-6325,PAYLOAD,2024-07-21 20:06:02,14.98334201,0.0002815,70.0015,6.8103,267.0664,93.0173,1.1024e-05,3.9e-07,0.0,0 STARLINK-6325,1 56789U 23078Y   24203.83752795  .00000039  00000-0  11024-4 0  9996,2 56789  70.0015   6.8103 0002815 267.0664  93.0173 14.98334201 65082,6950.18,96.107,574.001,570.088,0.0
56789.0,STARLINK-6325,PAYLOAD,2024-07-22 10:31:15,14.98328725,0.000278,70.0016,5.2949,265.9803,94.1038,2.7318e-05,2.33e-06,0.0,0 STARLINK-6325,1 56789U 23078Y   24204.43837016  .00000233  00000-0  27318-4 0  9992,2 56789  70.0016   5.2949 0002780 265.9803  94.1038 14.98328725 64767,6950.197,96.107,573.994,570.13,0.0
56789.0,STARLINK-6325,PAYLOAD,2024-07-23 10:33:16,14.98329265,0.0002753,70.0017,2.7704,265.6401,94.4443,-3.5418e-05,-5.15e-06,0.0,0 STARLINK-6325,1 56789U 23078Y   24205.43977196 -.00000515  00000-0 -35418-4 0  9992,2 56789  70.0017   2.7704 0002753 265.6401  94.4443 14.98329265 64910,6950.195,96.107,573.974,570.147,0.0
56789.0,STARLINK-6325,PAYLOAD,2024-07-23 20:10:04,14.9833095,0.0002946,70.0012,1.7599,269.0569,91.0252,-2.7448e-05,-4.2e-06,0.0,0 STARLINK-6325,1 56789U 23078Y   24205.84033059 -.00000420  00000-0 -27448-4 0  9997,2 56789  70.0012   1.7599 0002946 269.0569  91.0252 14.98330950 65389,6950.19,96.107,574.102,570.007,0.0
56789.0,STARLINK-6325,PAYLOAD,2024-07-24 10:35:17,14.9832744,0.000298,70.0003,0.2435,269.525,90.5568,-2.7179e-06,-1.25e-06,0.0,0 STARLINK-6325,1 56789U 23078Y   24206.44117211 -.00000125  00000-0 -27179-5 0  9991,2 56789  70.0003   0.2435 0002980 269.5250  90.5568 14.98327440 65061,6950.201,96.107,574.137,569.995,0.0
56789.0,STARLINK-6325,PAYLOAD,2024-07-25 10:37:17,14.98331104,0.0002963,70.0017,357.7187,269.4777,90.6042,1.9903e-05,1.45e-06,0.0,0 STARLINK-6325,1 56789U 23078Y   24207.44256935  .00000145  00000-0  19903-4 0  9994,2 56789  70.0017 357.7187 0002963 269.4777  90.6042 14.98331104 65211,6950.189,96.107,574.114,569.995,0.0
56789.0,STARLINK-6325,PAYLOAD,2024-07-25 20:14:06,14.98329,0.0003023,70.0018,356.7095,270.1029,89.9784,-5.9942e-06,-1.64e-06,0.0,0 STARLINK-6325,1 56789U 23078Y   24207.84313135 -.00000164  00000-0 -59942-5 0  9995,2 56789  70.0018 356.7095 0003023 270.1029  89.9784 14.98329000 65683,6950.196,96.107,574.162,569.96,0.0
56789.0,STARLINK-6325,PAYLOAD,2024-07-26 10:39:18,14.98331937,0.0003161,69.9999,355.1942,269.6427,90.4369,7.7096e-06,-1e-08,0.0,0 STARLINK-6325,1 56789U 23078Y   24208.44396881 -.00000001  00000-0  77096-5 0  9990,2 56789  69.9999 355.1942 0003161 269.6427  90.4369 14.98331937 65363,6950.187,96.107,574.249,569.855,0.0
56789.0,STARLINK-6325,PAYLOAD,2024-07-26 18:39:58,14.98338573,0.0003001,70.0009,354.3527,271.1054,88.9761,7.4577e-05,7.97e-06,0.0,0 STARLINK-6325,1 56789U 23078Y   24208.77776188  .00000797  00000-0  74577-4 0  9999,2 56789  70.0009 354.3527 0003001 271.1054  88.9761 14.98338573 65412,6950.166,96.106,574.117,569.946,0.0
